OBJECT_NAME,OBJECT_ID,EPOCH,MEAN_MOTION,ECCENTRICITY,INCLINATION,RA_OF_ASC_NODE,ARG_OF_PERICENTER,MEAN_ANOMALY,EPHEMERIS_TYPE,CLASSIFICATION_TYPE,NORAD_CAT_ID,ELEMENT_SET_NO,REV_AT_EPOCH,BSTAR,MEAN_MOTION_DOT,MEAN_MOTION_DDOT
ONEWEB-0365,2021-090N,2026-07-16T12:40:02.232768,13.19726849,.00020926,87.9194,299.1260,102.2839,257.8528,0,U,49291,999,23029,.33019397E-3,.145E-5,0
ONEWEB-0366,2021-090P,2026-07-16T06:49:44.048640,13.14502258,.0002023,87.8967,283.9093,98.2823,261.8536,0,U,49292,999,23138,-.20748465E-3,-.64E-6,0
ONEWEB-0367,2021-090Q,2026-07-16T11:32:41.140608,13.20773235,.000223,87.9185,268.6038,101.3439,258.7945,0,U,49293,999,23369,.96784327E-4,.52E-6,0
ONEWEB-0368,2021-090R,2026-07-16T05:27:51.830208,13.20771686,.00016657,87.9173,268.6615,116.8877,243.2427,0,U,49294,999,23481,.16842715E-4,.2E-6,0
ONEWEB-0369,2021-090S,2026-07-16T12:33:12.851424,13.19726639,.00020281,87.9187,299.1320,103.8211,256.3147,0,U,49295,999,23028,.94420054E-4,.51E-6,0
ONEWEB-0370,2021-090T,2026-07-16T11:46:01.831872,13.20772056,.00023193,87.9185,268.6012,94.2371,265.9027,0,U,49296,999,23373,-.8928044E-4,-.23E-6,0
ONEWEB-0371,2021-090U,2026-07-16T12:44:35.195424,13.19725560,.00021312,87.9193,299.1250,101.3932,258.7441,0,U,49297,999,23032,.26782929E-3,.12E-5,0
ONEWEB-0372,2021-090V,2026-07-16T06:04:00.223104,13.20769006,.00021022,87.9186,268.6504,99.8389,260.2982,0,U,49298,999,23367,-.18389366E-3,-.62E-6,0
ONEWEB-0373,2021-090W,2026-07-16T10:18:44.328672,13.20773486,.00020808,87.9185,268.6148,96.1207,264.0163,0,U,49299,999,23488,-.5591673E-5,.11E-6,0
ONEWEB-0374,2021-090X,2026-07-16T06:31:26.709888,13.14502967,.00015518,87.8970,283.9035,88.6620,271.4688,0,U,49300,999,23138,-.49024205E-3,-.169E-5,0
ONEWEB-0375,2021-090Y,2026-07-16T04:34:30.278208,13.20773208,.00016572,87.9186,268.6545,87.0209,273.1114,0,U,49301,999,23435,.10366393E-3,.55E-6,0
ONEWEB-0376,2021-090Z,2026-07-16T12:42:17.940384,13.19726841,.00020965,87.9194,299.1253,105.8085,254.3279,0,U,49302,999,23032,.16062044E-4,.19E-6,0
ONEWEB-0377,2021-090AA,2026-07-16T15:09:48.605184,13.20793146,.00020338,87.9185,268.5688,94.1350,266.0016,0,U,49303,999,23440,.57281514E-2,.2343E-4,0
ONEWEB-0378,2021-090AB,2026-07-16T04:44:25.374624,13.20772079,.00019124,87.9181,268.6591,97.7761,262.3589,0,U,49304,999,23361,.824925E-4,.47E-6,0
ONEWEB-0379,2021-090AC,2026-07-16T06:24:36.247680,13.14502453,.00019108,87.8969,283.9146,99.1407,260.9939,0,U,49305,999,23138,-.60068451E-3,-.21E-5,0
ONEWEB-0380,2021-090AD,2026-07-16T12:37:45.843456,13.19727576,.00019896,87.9187,299.1292,94.6780,265.4580,0,U,49306,999,23029,.15614236E-3,.75E-6,0
ONEWEB-0381,2021-090AE,2026-07-16T15:04:47.316288,13.20770751,.00018462,87.9184,268.5742,94.4966,265.6378,0,U,49307,999,23371,-.43182889E-3,-.163E-5,0
ONEWEB-0382,2021-090AF,2026-07-16T14:45:25.662240,13.20771841,.00017943,87.9184,268.5707,97.1965,262.9372,0,U,49308,999,23370,.12564817E-3,.64E-6,0
ONEWEB-0383,2021-090AG,2026-07-16T11:44:17.921184,13.14502746,.00019044,87.8975,283.8627,101.2454,258.8889,0,U,49309,999,23144,.62916071E-4,.36E-6,0
ONEWEB-0384,2021-090AH,2026-07-16T14:27:43.582464,13.20813881,.00016315,87.9186,268.6172,100.2176,259.9141,0,U,49310,999,23371,.42858267E-4,.3E-6,0
ONEWEB-0385,2021-090AJ,2026-07-16T10:57:32.123520,13.20769435,.00019308,87.9184,268.6078,96.5665,263.5688,0,U,49311,999,23366,.26329229E-3,.12E-5,0
ONEWEB-0386,2021-090AK,2026-07-16T14:59:56.518944,13.20773350,.00018259,87.9187,268.5663,98.8489,261.2851,0,U,49312,999,23370,.13125097E-3,.66E-6,0
ONEWEB-0387,2021-090AL,2026-07-16T05:32:41.296128,13.20769496,.00019846,87.9175,268.6631,87.7760,272.3601,0,U,49313,999,23365,.97575697E-4,.53E-6,0
ONEWEB-0388,2021-090AM,2026-07-16T07:03:24.525504,13.19727211,.00018684,87.9185,299.1733,99.7350,260.3994,0,U,49314,999,23025,.22981918E-3,.105E-5,0
ONEWEB-0389,2021-132A,2026-07-16T12:14:29.717088,13.17650514,.00017046,87.9145,0.0344,83.0121,277.1205,0,U,50469,999,22194,-.9072013E-5,.9E-7,0
ONEWEB-0390,2021-132B,2026-07-16T10:27:34.581024,13.17650814,.00020796,87.9146,0.0500,91.1054,269.0316,0,U,50470,999,22193,.11780875E-3,.59E-6,0
ONEWEB-0391,2021-132C,2026-07-16T10:30:00.412992,13.17650634,.00019887,87.9146,0.0597,68.5890,291.5453,0,U,50471,999,22193,.4727551E-5,.15E-6,0
ONEWEB-0392,2021-132D,2026-07-16T11:13:45.117120,13.17651039,.00017468,87.9156,0.0239,82.0976,278.0354,0,U,50472,999,22197,-.24097219E-4,.4E-7,0
ONEWEB-0393,2021-132E,2026-07-16T10:38:32.052192,13.17647731,.00017908,87.9144,0.0439,88.6262,271.5075,0,U,50473,999,22196,.32888809E-3,.141E-5,0
ONEWEB-0394,2021-132F,2026-07-16T09:16:28.431552,13.18685120,.00017463,87.9196,329.6361,97.1861,262.9470,0,U,50474,999,22544,.23244134E-3,.105E-5,0
