ONEWEB-0365             
1 49291U 21090N   26197.52780362  .00000145  00000+0  33019-3 0  9993
2 49291  87.9194 299.1260 0002092 102.2839 257.8528 13.19726849230295
ONEWEB-0366             
1 49292U 21090P   26197.28453760 -.00000064  00000+0 -20748-3 0  9993
2 49292  87.8967 283.9093 0002023  98.2823 261.8536 13.14502258231385
ONEWEB-0367             
1 49293U 21090Q   26197.48103172  .00000052  00000+0  96784-4 0  9994
2 49293  87.9185 268.6038 0002230 101.3439 258.7945 13.20773235233694
ONEWEB-0368             
1 49294U 21090R   26197.22768322  .00000020  00000+0  16843-4 0  9994
2 49294  87.9173 268.6615 0001665 116.8877 243.2427 13.20771686234818
ONEWEB-0369             
1 49295U 21090S   26197.52306541  .00000051  00000+0  94420-4 0  9990
2 49295  87.9187 299.1320 0002028 103.8211 256.3147 13.19726639230285
ONEWEB-0370             
1 49296U 21090T   26197.49029898 -.00000023  00000+0 -89280-4 0  9993
2 49296  87.9185 268.6012 0002319  94.2371 265.9027 13.20772056233738
ONEWEB-0371             
1 49297U 21090U   26197.53096291  .00000120  00000+0  26783-3 0  9994
2 49297  87.9193 299.1250 0002131 101.3932 258.7441 13.19725560230324
ONEWEB-0372             
1 49298U 21090V   26197.25278036 -.00000062  00000+0 -18389-3 0  9993
2 49298  87.9186 268.6504 0002102  99.8389 260.2982 13.20769006233679
ONEWEB-0373             
1 49299U 21090W   26197.42967973  .00000011  00000+0 -55917-5 0  9991
2 49299  87.9185 268.6148 0002080  96.1207 264.0163 13.20773486234881
ONEWEB-0374             
1 49300U 21090X   26197.27183692 -.00000169  00000+0 -49024-3 0  9990
2 49300  87.8970 283.9035 0001551  88.6620 271.4688 13.14502967231380
ONEWEB-0375             
1 49301U 21090Y   26197.19062822  .00000055  00000+0  10366-3 0  9992
2 49301  87.9186 268.6545 0001657  87.0209 273.1114 13.20773208234358
ONEWEB-0376             
1 49302U 21090Z   26197.52937431  .00000019  00000+0  16062-4 0  9997
2 49302  87.9194 299.1253 0002096 105.8085 254.3279 13.19726841230327
ONEWEB-0377             
1 49303U 21090AA  26197.63181256  .00002343  00000+0  57282-2 0  9995
2 49303  87.9185 268.5688 0002033  94.1350 266.0016 13.20793146234402
ONEWEB-0378             
1 49304U 21090AB  26197.19751591  .00000047  00000+0  82493-4 0  9995
2 49304  87.9181 268.6591 0001912  97.7761 262.3589 13.20772079233611
ONEWEB-0379             
1 49305U 21090AC  26197.26708620 -.00000210  00000+0 -60068-3 0  9996
2 49305  87.8969 283.9146 0001910  99.1407 260.9939 13.14502453231387
ONEWEB-0380             
1 49306U 21090AD  26197.52622504  .00000075  00000+0  15614-3 0  9996
2 49306  87.9187 299.1292 0001989  94.6780 265.4580 13.19727576230293
ONEWEB-0381             
1 49307U 21090AE  26197.62832542 -.00000163  00000+0 -43183-3 0  9995
2 49307  87.9184 268.5742 0001846  94.4966 265.6378 13.20770751233719
ONEWEB-0382             
1 49308U 21090AF  26197.61488035  .00000064  00000+0  12565-3 0  9997
2 49308  87.9184 268.5707 0001794  97.1965 262.9372 13.20771841233706
ONEWEB-0383             
1 49309U 21090AG  26197.48909631  .00000036  00000+0  62916-4 0  9998
2 49309  87.8975 283.8627 0001904 101.2454 258.8889 13.14502746231443
ONEWEB-0384             
1 49310U 21090AH  26197.60258776  .00000030  00000+0  42858-4 0  9998
2 49310  87.9186 268.6172 0001631 100.2176 259.9141 13.20813881233710
ONEWEB-0385             
1 49311U 21090AJ  26197.45662180  .00000120  00000+0  26329-3 0  9994
2 49311  87.9184 268.6078 0001930  96.5665 263.5688 13.20769435233662
ONEWEB-0386             
1 49312U 21090AK  26197.62495971  .00000066  00000+0  13125-3 0  9995
2 49312  87.9187 268.5663 0001825  98.8489 261.2851 13.20773350233700
ONEWEB-0387             
1 49313U 21090AL  26197.23103352  .00000053  00000+0  97576-4 0  9991
2 49313  87.9175 268.6631 0001984  87.7760 272.3601 13.20769496233655
ONEWEB-0388             
1 49314U 21090AM  26197.29403386  .00000105  00000+0  22982-3 0  9994
2 49314  87.9185 299.1733 0001868  99.7350 260.3994 13.19727211230250
ONEWEB-0389             
1 50469U 21132A   26197.51006617  .00000009  00000+0 -90720-5 0  9996
2 50469  87.9145   0.0344 0001704  83.0121 277.1205 13.17650514221943
ONEWEB-0390             
1 50470U 21132B   26197.43581691  .00000059  00000+0  11781-3 0  9991
2 50470  87.9146   0.0500 0002079  91.1054 269.0316 13.17650814221936
ONEWEB-0391             
1 50471U 21132C   26197.43750478  .00000015  00000+0  47276-5 0  9995
2 50471  87.9146   0.0597 0001988  68.5890 291.5453 13.17650634221939
ONEWEB-0392             
1 50472U 21132D   26197.46788330  .00000004  00000+0 -24097-4 0  9991
2 50472  87.9156   0.0239 0001746  82.0976 278.0354 13.17651039221976
ONEWEB-0393             
1 50473U 21132E   26197.44342653  .00000141  00000+0  32889-3 0  9992
2 50473  87.9144   0.0439 0001790  88.6262 271.5075 13.17647731221966
ONEWEB-0394             
1 50474U 21132F   26197.38644018  .00000105  00000+0  23244-3 0  9991
2 50474  87.9196 329.6361 0001746  97.1861 262.9470 13.18685120225444
